[
    {
        "Altitude(m)": 569876.387478923,
        "Argument of Periapsis(deg)": 0.019868973332140504,
        "Eccentricity": 0.0,
        "Inclination(deg)": 53.0,
        "Latitude(deg)": -48.15971129866231,
        "Longitude(deg)": -25.554183820823155,
        "Mean Anomaly(deg)": -111.54332139726719,
        "RAAN(deg)": 199.97043010558403,
        "Satellite Name": "Starlink Shell 1 893",
        "Satellite Number": 893,
        "Semi-Major Axis(m)": 6931778.249405717,
        "Time(s)": 570
    },
    {
        "Altitude(m)": 569985.3037096049,
        "Argument of Periapsis(deg)": 0.02021755181165174,
        "Eccentricity": 0.0,
        "Inclination(deg)": 53.0,
        "Latitude(deg)": -48.42996749950458,
        "Longitude(deg)": -24.750611576504767,
        "Mean Anomaly(deg)": -110.9164901937105,
        "RAAN(deg)": 199.9699113355066,
        "Satellite Name": "Starlink Shell 1 893",
        "Satellite Number": 893,
        "Semi-Major Axis(m)": 6931778.249405717,
        "Time(s)": 580
    },
    {
        "Altitude(m)": 570091.4794651307,
        "Argument of Periapsis(deg)": 0.020566130291162974,
        "Eccentricity": 0.0,
        "Inclination(deg)": 53.0,
        "Latitude(deg)": -48.69394157390947,
        "Longitude(deg)": -23.93815604543081,
        "Mean Anomaly(deg)": -110.28965899015381,
        "RAAN(deg)": 199.96939256542908,
        "Satellite Name": "Starlink Shell 1 893",
        "Satellite Number": 893,
        "Semi-Major Axis(m)": 6931778.249405717,
        "Time(s)": 590
    },
    {
        "Altitude(m)": 570194.8726136307,
        "Argument of Periapsis(deg)": 0.020914708770674213,
        "Eccentricity": 0.0,
        "Inclination(deg)": 53.0,
        "Latitude(deg)": -48.95151043264311,
        "Longitude(deg)": -23.116855618020015,
        "Mean Anomaly(deg)": -109.6628277865971,
        "RAAN(deg)": 199.96887379535164,
        "Satellite Name": "Starlink Shell 1 893",
        "Satellite Number": 893,
        "Semi-Major Axis(m)": 6931778.249405717,
        "Time(s)": 600
    },
    {
        "Altitude(m)": 570295.4421095073,
        "Argument of Periapsis(deg)": 0.021263287250185448,
        "Eccentricity": 0.0,
        "Inclination(deg)": 53.0,
        "Latitude(deg)": -49.20255094248313,
        "Longitude(deg)": -22.286761281895913,
        "Mean Anomaly(deg)": -109.03599658304043,
        "RAAN(deg)": 199.96835502527415,
        "Satellite Name": "Starlink Shell 1 893",
        "Satellite Number": 893,
        "Semi-Major Axis(m)": 6931778.249405717,
        "Time(s)": 610
    },
    {
        "Altitude(m)": 570393.1480113099,
        "Argument of Periapsis(deg)": 0.021611865729696686,
        "Eccentricity": 0.0,
        "Inclination(deg)": 53.0,
        "Latitude(deg)": -49.44694011858605,
        "Longitude(deg)": -21.447936622376176,
        "Mean Anomaly(deg)": -108.40916537948362,
        "RAAN(deg)": 199.9678362551967,
        "Satellite Name": "Starlink Shell 1 893",
        "Satellite Number": 893,
        "Semi-Major Axis(m)": 6931778.249405717,
        "Time(s)": 620
    },
    {
        "Altitude(m)": 570487.9514991695,
        "Argument of Periapsis(deg)": 0.02196044420920792,
        "Eccentricity": 0.0,
        "Inclination(deg)": 53.0,
        "Latitude(deg)": -49.68455532760854,
        "Longitude(deg)": -20.600459482953273,
        "Mean Anomaly(deg)": -107.78233417592692,
        "RAAN(deg)": 199.96731748511922,
        "Satellite Name": "Starlink Shell 1 893",
        "Satellite Number": 893,
        "Semi-Major Axis(m)": 6931778.249405717,
        "Time(s)": 630
    },
    {
        "Altitude(m)": 570579.8148917033,
        "Argument of Periapsis(deg)": 0.02230902268871916,
        "Eccentricity": 0.0,
        "Inclination(deg)": 53.0,
        "Latitude(deg)": -49.91527450132047,
        "Longitude(deg)": -19.74442107872066,
        "Mean Anomaly(deg)": -107.15550297237024,
        "RAAN(deg)": 199.96679871504173,
        "Satellite Name": "Starlink Shell 1 893",
        "Satellite Number": 893,
        "Semi-Major Axis(m)": 6931778.249405717,
        "Time(s)": 640
    },
    {
        "Altitude(m)": 570668.7016624357,
        "Argument of Periapsis(deg)": 0.022657601168230398,
        "Eccentricity": 0.0,
        "Inclination(deg)": 53.0,
        "Latitude(deg)": -50.1389763603615,
        "Longitude(deg)": -18.87992760086687,
        "Mean Anomaly(deg)": -106.52867176881348,
        "RAAN(deg)": 199.96627994496427,
        "Satellite Name": "Starlink Shell 1 893",
        "Satellite Number": 893,
        "Semi-Major Axis(m)": 6931778.249405717,
        "Time(s)": 650
    },
    {
        "Altitude(m)": 570754.5764556847,
        "Argument of Periapsis(deg)": 0.023006179647741636,
        "Eccentricity": 0.0,
        "Inclination(deg)": 53.0,
        "Latitude(deg)": -50.3555406476776,
        "Longitude(deg)": -18.00710010486166,
        "Mean Anomaly(deg)": -105.90184056525685,
        "RAAN(deg)": 199.9657611748868,
        "Satellite Name": "Starlink Shell 1 893",
        "Satellite Number": 893,
        "Semi-Major Axis(m)": 6931778.249405717,
        "Time(s)": 660
    },
    {
        "Altitude(m)": 570837.4051019662,
        "Argument of Periapsis(deg)": 0.023354758127252868,
        "Eccentricity": 0.0,
        "Inclination(deg)": 53.0,
        "Latitude(deg)": -50.56484837107422,
        "Longitude(deg)": -17.12607435826032,
        "Mean Anomaly(deg)": -105.27500936170007,
        "RAAN(deg)": 199.96524240480932,
        "Satellite Name": "Starlink Shell 1 893",
        "Satellite Number": 893,
        "Semi-Major Axis(m)": 6931778.249405717,
        "Time(s)": 670
    },
    {
        "Altitude(m)": 570917.1546328338,
        "Argument of Periapsis(deg)": 0.023703336606764106,
        "Eccentricity": 0.0,
        "Inclination(deg)": 53.0,
        "Latitude(deg)": -50.76678205421063,
        "Longitude(deg)": -16.237002155909206,
        "Mean Anomaly(deg)": -104.64817815814335,
        "RAAN(deg)": 199.96472363473188,
        "Satellite Name": "Starlink Shell 1 893",
        "Satellite Number": 893,
        "Semi-Major Axis(m)": 6931778.249405717,
        "Time(s)": 680
    },
    {
        "Altitude(m)": 570993.7932952347,
        "Argument of Periapsis(deg)": 0.024051915086275345,
        "Eccentricity": 0.0,
        "Inclination(deg)": 53.0,
        "Latitude(deg)": -50.96122599523826,
        "Longitude(deg)": -15.340051071710983,
        "Mean Anomaly(deg)": -104.02134695458668,
        "RAAN(deg)": 199.96420486465436,
        "Satellite Name": "Starlink Shell 1 893",
        "Satellite Number": 893,
        "Semi-Major Axis(m)": 6931778.249405717,
        "Time(s)": 690
    },
    {
        "Altitude(m)": 571067.2905652887,
        "Argument of Periapsis(deg)": 0.024400493565786583,
        "Eccentricity": 0.0,
        "Inclination(deg)": 53.0,
        "Latitude(deg)": -51.14806653217738,
        "Longitude(deg)": -14.43540415481056,
        "Mean Anomaly(deg)": -103.39451575102989,
        "RAAN(deg)": 199.96368609457687,
        "Satellite Name": "Starlink Shell 1 893",
        "Satellite Number": 893,
        "Semi-Major Axis(m)": 6931778.249405717,
        "Time(s)": 700
    },
    {
        "Altitude(m)": 571137.6171615622,
        "Argument of Periapsis(deg)": 0.024749072045297815,
        "Eccentricity": 0.0,
        "Inclination(deg)": 53.0,
        "Latitude(deg)": -51.327192314010176,
        "Longitude(deg)": -13.523261078197622,
        "Mean Anomaly(deg)": -102.76768454747324,
        "RAAN(deg)": 199.9631673244994,
        "Satellite Name": "Starlink Shell 1 893",
        "Satellite Number": 893,
        "Semi-Major Axis(m)": 6931778.249405717,
        "Time(s)": 710
    },
    {
        "Altitude(m)": 571204.7450577769,
        "Argument of Periapsis(deg)": 0.025097650524809053,
        "Eccentricity": 0.0,
        "Inclination(deg)": 53.0,
        "Latitude(deg)": -51.49849457634713,
        "Longitude(deg)": -12.603837709309628,
        "Mean Anomaly(deg)": -102.14085334391649,
        "RAAN(deg)": 199.96264855442197,
        "Satellite Name": "Starlink Shell 1 893",
        "Satellite Number": 893,
        "Semi-Major Axis(m)": 6931778.249405717,
        "Time(s)": 720
    },
    {
        "Altitude(m)": 571268.6474949653,
        "Argument of Periapsis(deg)": 0.02544622900432029,
        "Eccentricity": 0.0,
        "Inclination(deg)": 53.0,
        "Latitude(deg)": -51.66186742042007,
        "Longitude(deg)": -11.677365611138788,
        "Mean Anomaly(deg)": -101.51402214035981,
        "RAAN(deg)": 199.96212978434448,
        "Satellite Name": "Starlink Shell 1 893",
        "Satellite Number": 893,
        "Semi-Major Axis(m)": 6931778.249405717,
        "Time(s)": 730
    },
    {
        "Altitude(m)": 571329.2989931095,
        "Argument of Periapsis(deg)": 0.02579480748383153,
        "Eccentricity": 0.0,
        "Inclination(deg)": 53.0,
        "Latitude(deg)": -51.81720809405082,
        "Longitude(deg)": -10.744092982704029,
        "Mean Anomaly(deg)": -100.88719093680317,
        "RAAN(deg)": 199.96161101426702,
        "Satellite Name": "Starlink Shell 1 893",
        "Satellite Number": 893,
        "Semi-Major Axis(m)": 6931778.249405717,
        "Time(s)": 740
    },
    {
        "Altitude(m)": 571386.6753621636,
        "Argument of Periapsis(deg)": 0.026143385963342765,
        "Eccentricity": 0.0,
        "Inclination(deg)": 53.0,
        "Latitude(deg)": -51.964417273137876,
        "Longitude(deg)": -9.804284009584487,
        "Mean Anomaly(deg)": -100.2603597332463,
        "RAAN(deg)": 199.96109224418956,
        "Satellite Name": "Starlink Shell 1 893",
        "Satellite Number": 893,
        "Semi-Major Axis(m)": 6931778.249405717,
        "Time(s)": 750
    }
]